0 OV1-14 R/B
1 03177U 68026C   13282.11075365  .00000159  00000-0  32115-3 0  3561
2 03177 100.0685 037.1203 3979810 126.3678 346.8200 06.97044181154425
0 OV1-14 R/B
1 03177U 68026C   13284.11854016  .00000155  00000-0  31304-3 0  3577
2 03177 100.0691 037.7324 3979594 124.8772 345.0811 06.97044897154567
0 OV1-14 R/B
1 03177U 68026C   13286.12714341  .00000112  00000-0  22593-3 0  3580
2 03177 100.0699 038.3448 3979364 123.3861 345.3958 06.97045722154706
0 OV1-14 R/B
1 03177U 68026C   13288.13615426  .00000166  00000-0  33662-3 0  3596
2 03177 100.0705 038.9574 3979141 121.8953 346.7400 06.97046526154843
0 OV1-14 R/B
1 03177U 68026C   13290.14178282  .00000130  00000-0  26502-3 0  3602
2 03177 100.0706 039.5693 3978909 120.4068 339.6031 06.97047040154984
0 OV1-14 R/B
1 03177U 68026C   13292.29087509  .00000086  00000-0  17387-3 0  3613
2 03177 100.0703 040.2251 3978702 118.8122 332.4719 06.97047937155130
0 OV1-14 R/B
1 03177U 68026C   13294.44915845 -.00000045  00000-0 -94603-4 0  3620
2 03177 100.0700 040.8835 3978547 117.2112 348.4076 06.97049368155289
